[{"OBJECT_NAME":"ONEWEB-0673","OBJECT_ID":"2023-029AN","EPOCH":"2026-03-09T17:17:38.766048","MEAN_MOTION":13.19725507,"ECCENTRICITY":0.00015882,"INCLINATION":87.9232,"RA_OF_ASC_NODE":324.7817,"ARG_OF_PERICENTER":82.992,"MEAN_ANOMALY":277.1393,"EPHEMERIS_TYPE":0,"CLASSIFICATION_TYPE":"U","NORAD_CAT_ID":55832,"ELEMENT_SET_NO":999,"REV_AT_EPOCH":14578,"BSTAR":-0.00051881823,"MEAN_MOTION_DOT":-1.95e-6,"MEAN_MOTION_DDOT":0},{"OBJECT_NAME":"COSMOS 409","OBJECT_ID":"1971-038A","EPOCH":"2026-03-09T17:20:52.429056","MEAN_MOTION":13.17842311,"ECCENTRICITY":0.00220215,"INCLINATION":74.003,"RA_OF_ASC_NODE":163.2842,"ARG_OF_PERICENTER":70.8976,"MEAN_ANOMALY":43.1242,"EPHEMERIS_TYPE":0,"CLASSIFICATION_TYPE":"U","NORAD_CAT_ID":5180,"ELEMENT_SET_NO":999,"REV_AT_EPOCH":63914,"BSTAR":0.00038470119,"MEAN_MOTION_DOT":1.31e-6,"MEAN_MOTION_DDOT":0}]
